[{"OBJECT_NAME":"STARLINK-31458","OBJECT_ID":"2024-071T","EPOCH":"2026-03-09T03:25:41.763072","MEAN_MOTION":15.27563458,"ECCENTRICITY":9.83e-5,"INCLINATION":43.0047,"RA_OF_ASC_NODE":342.6879,"ARG_OF_PERICENTER":249.2821,"MEAN_ANOMALY":110.7925,"EPHEMERIS_TYPE":0,"CLASSIFICATION_TYPE":"U","NORAD_CAT_ID":59501,"ELEMENT_SET_NO":999,"REV_AT_EPOCH":10812,"BSTAR":-0.00013457073,"MEAN_MOTION_DOT":-3.961e-5,"MEAN_MOTION_DDOT":0},{"OBJECT_NAME":"OV1-19","OBJECT_ID":"1969-025C","EPOCH":"2026-03-09T21:47:24.425376","MEAN_MOTION":9.583977,"ECCENTRICITY":0.26774515,"INCLINATION":104.7313,"RA_OF_ASC_NODE":210.85,"ARG_OF_PERICENTER":145.6894,"MEAN_ANOMALY":235.034,"EPHEMERIS_TYPE":0,"CLASSIFICATION_TYPE":"U","NORAD_CAT_ID":3825,"ELEMENT_SET_NO":999,"REV_AT_EPOCH":97573,"BSTAR":0.0005405909,"MEAN_MOTION_DOT":1.098e-5,"MEAN_MOTION_DDOT":0}]
